OPTICUBE 04             
1 41851U 16067D   18148.46842142  .00000393  00000-0  39720-4 0  9992
2 41851  97.9239 236.3359 0007667 223.0037 137.0585 14.96667840 84141
AEROCUBE 8D             
1 41852U 16067E   18148.23545853  .00000103  00000-0  14423-4 0  9999
2 41852  97.9242 235.9459 0008827 225.8552 134.1944 14.96480839 84095
AEROCUBE 8C             
1 41853U 16067F   18148.78407867  .00000624  00000-0  60320-4 0  9997
2 41853  97.9245 236.4654 0009088 223.7057 136.3445 14.96446534 84172
PROMETHEUS 2-1          
1 41854U 16067G   18148.45755979  .00000926  00000-0  86685-4 0  9999
2 41854  97.9254 236.1391 0009283 224.3114 135.7364 14.96546842 84127
PROMETHEUS 2-3          
1 41855U 16067H   18148.46015618  .00000899  00000-0  84318-4 0  9990
2 41855  97.9258 236.1455 0009383 224.8425 135.2039 14.96544857 84122
ITF-2                   
1 41932U 98067KU  18148.20013637  .00025655  00000-0  17179-3 0  9994
2 41932  51.6346  83.7514 0004940 109.0782 251.0753 15.75086919 77613
WASEDA-SAT3             
1 41933U 98067KV  18148.19243447  .00044036  00000-0  22486-3 0  9998
2 41933  51.6350  77.5577 0004721 110.1381 250.0129 15.80885433 77692
AOBA-VELOX 3            
1 41935U 98067KX  18148.83389047  .00035032  00000-0  19895-3 0  9994
2 41935  51.6364  76.6751 0004832 114.7641 245.3863 15.78651038 77865
INS-1B                  
1 41954U 17008G   18148.60990392  .00001170  00000-0  52775-4 0  9998
2 41954  97.4473 212.7384 0011008  67.1408 293.0990 15.22956859 71026
BGUSAT                  
1 41999U 17008BD  18148.60308947  .00001869  00000-0  78878-4 0  9993
2 41999  97.4518 213.7307 0010323  83.0331 277.2080 15.24509075 70447
DIDO-2                  
1 42000U 17008BE  18148.55412939  .00000849  00000-0  38920-4 0  9999
2 42000  97.4491 213.1044 0010403  83.2800 276.9620 15.23156878 70416
PEASSS                  
1 42015U 17008BV  18148.60859552  .00001031  00000-0  45567-4 0  9996
2 42015  97.4488 213.5918 0008334  89.6401 270.5791 15.23960538 70931
AL-FARABI 1             
1 42016U 17008BW  18148.60646390  .00001322  00000-0  56898-4 0  9993
2 42016  97.4495 213.7730 0008238  90.1103 270.1078 15.24361409 71065
NAYIF-1 (EO-88)         
1 42017U 17008BX  18148.60102498  .00001317  00000-0  56687-4 0  9990
2 42017  97.4494 213.7740 0008207  90.3155 269.9023 15.24384849 71082
HAVELSAT                
1 42700U 98067LH  18148.87051243  .00023192  00000-0  19175-3 0  9998
2 42700  51.6354  93.4930 0003877 148.3256 211.7975 15.70169360 58981
CXBN-2                  
1 42704U 98067LM  18148.24977710  .00021355  00000-0  18031-3 0  9998
2 42704  51.6359  97.6135 0003437  87.8805 272.2586 15.69718491 58794
ICECUBE                 
1 42705U 98067LN  18148.82250050  .00046076  00000-0  27768-3 0  9998
2 42705  51.6455  88.0065 0003994 109.4485 250.6947 15.77191924 59035
PHOENIX                 
1 42706U 98067LP  18148.86935220  .00016268  00000-0  14622-3 0  9997
2 42706  51.6357  94.9946 0002548  91.2363 268.8925 15.68407586 58870
X-CUBESAT               
1 42707U 98067LQ  18148.85732392  .00023402  00000-0  18972-3 0  9992
2 42707  51.6326  93.3459 0002901  91.9029 268.2301 15.70640386 58881
QBEE50-LTU-OC           
1 42708U 98067LR  18148.85760064  .00022281  00000-0  18697-3 0  9998
2 42708  51.6363  94.1493 0002808  93.0363 267.0956 15.69840241 58838
ALTAIR PATHFINDER       
1 42711U 98067LS  18148.51430918  .00010169  00000-0  11163-3 0  9990
2 42711  51.6358 103.1349 0004752  97.9367 262.2167 15.63882351 58398
SHARC                   
1 42712U 98067LT  18148.89751587  .00017801  00000-0  19409-3 0  9991
2 42712  51.6374 102.7480 0003657  97.5543 262.5867 15.63466235 58673
ZA-AEROSAT              
1 42713U 98067LU  18148.88211364  .00015373  00000-0  14587-3 0  9999
2 42713  51.6348  97.3190 0003572  86.8294 273.3110 15.67114055 58509
LINK                    
1 42714U 98067LV  18148.83528460  .00051192  00000-0  29862-3 0  9994
2 42714  51.6259  87.8552 0004429  87.7271 272.4236 15.77877387 58733
CSUNSAT 1               
1 42715U 98067LW  18148.84459580  .00017243  00000-0  15944-3 0  9997
2 42715  51.6356  97.0875 0005083  91.9776 268.1803 15.67648170 58509
SPACECUBE               
1 42717U 98067LY  18148.88319073  .00021850  00000-0  18374-3 0  9994
2 42717  51.6336  94.3032 0002909 135.6321 224.4909 15.69802733 57915
HOOPOE                  
1 42718U 98067LZ  18148.88311961  .00028882  00000-0  21871-3 0  9991
2 42718  51.6350  92.0559 0003148 128.5336 231.5945 15.72140572 57946
CHALLENGER              
1 42721U 98067MA  18148.24549532  .00079983  00000-0  36298-3 0  9999
2 42721  51.6287  86.8933 0005479 124.4804 235.6717 15.83172724 57656
NJUST-1                 
1 42722U 98067MB  18148.86757613  .00014788  00000-0  14555-3 0  9993
2 42722  51.6356  98.7410 0005486 141.6088 218.5299 15.66226866 57551
UNSW-ECO                
1 42723U 98067MC  18148.89192335  .00030994  00000-0  22833-3 0  9996
2 42723  51.6373  92.1439 0005119 131.9635 228.1800 15.72744022 57622
LILACSAT-1              
1 42725U 98067ME  18148.87502742  .00019498  00000-0  17355-3 0  9992
2 42725  51.6359  96.5337 0004651 137.1436 222.9924 15.68490778 57495
NSIGHT-1                
1 42726U 98067MF  18148.79283927  .00006470  00000-0  80828-4 0  9997
2 42726  51.6384 105.0465 0005307 149.4768 210.6536 15.61248313 57374
SNUSAT-1                
1 42727U 98067MG  18148.88563698  .00020127  00000-0  17954-3 0  9998
2 42727  51.6337  96.5563 0006991 111.2850 248.8894 15.68398998 57456
I-INSPIRE II            
1 42731U 98067ML  18148.82870562  .00033254  00000-0  23896-3 0  9995
2 42731  51.6339  91.6514 0006686 101.5960 258.5789 15.73279562 57407
POLYITAN-2-SAU          
1 42732U 98067MM  18148.86011585  .00023403  00000-0  19108-3 0  9998
2 42732  51.6351  94.1444 0006785 100.5136 259.6626 15.70450039 57371
SNUSAT-1B               
1 42733U 98067MN  18148.86555557  .00021529  00000-0  18672-3 0  9993
2 42733  51.6354  95.6967 0006803 102.8540 257.3217 15.69040754 57352
EXALTA-1                
1 42734U 98067MP  18148.88176790  .00035355  00000-0  24791-3 0  9995
2 42734  51.6325  91.2333 0006992 119.0557 241.1143 15.73818342 57368
BEEAGLESAT              
1 42736U 98067MR  18148.84645872  .00016702  00000-0  15342-3 0  9992
2 42736  51.6348  97.0682 0005824 138.6933 221.4505 15.67836074 57395
UCLSAT                  
1 42765U 17036A   18148.61483019  .00001038  00000-0  48689-4 0  9996
2 42765  97.4023 208.7780 0013037 139.2470 220.9743 15.21800960 52324
LITUANICASAT-2          
1 42768U 17036D   18148.60003157  .00001690  00000-0  78407-4 0  9994
2 42768  97.4039 208.3743 0017237 131.4041 228.8680 15.21289655 51589
AALTO-1                 
1 42775U 17036L   18148.16155320  .00000729  00000-0  36197-4 0  9995
2 42775  97.4017 207.8555 0015583 130.6041 229.6553 15.20714887 51454
URSA MAIOR              
1 42776U 17036M   18148.60971211  .00000777  00000-0  38267-4 0  9993
2 42776  97.4023 208.3427 0015472 129.2903 230.9707 15.20790118 51529
COMPASS 2               
1 42777U 17036N   18148.61315969  .00001464  00000-0  67680-4 0  9992
2 42777  97.4043 208.7010 0014396 132.0985 228.1477 15.21665257 51530
DIAMOND RED             
1 42783U 17036U   18148.60875885  .00000903  00000-0  43254-4 0  9994
2 42783  97.4024 208.6399 0013632 139.5237 220.7016 15.21415917 51532
PEGASUS                 
1 42784U 17036V   18148.58407770  .00001021  00000-0  48218-4 0  9993
2 42784  97.4025 208.6787 0013542 139.7003 220.5239 15.21612673 51531
DIAMOND GREEN           
1 42785U 17036W   18148.60767915  .00000903  00000-0  43249-4 0  9994
2 42785  97.4026 208.6513 0013512 140.0366 220.1867 15.21418620 51601
DIAMOND BLUE            
1 42786U 17036X   18148.60681268  .00000897  00000-0  42948-4 0  9998
2 42786  97.4026 208.6506 0013343 140.2141 220.0076 15.21418446 51606
NUDTSAT                 
1 42787U 17036Y   18148.57539254  .00001509  00000-0  68687-4 0  9991
2 42787  97.4033 208.8527 0013143 139.3184 220.9037 15.22166464 51386
SUCHAI                  
1 42788U 17036Z   18148.61049047  .00001207  00000-0  56028-4 0  9994
2 42788  97.4027 208.7946 0013178 139.3327 220.8896 15.21872817 51614
SKCUBE                  
1 42789U 17036AA  18148.60944914  .00001120  00000-0  52247-4 0  9994
2 42789  97.4024 208.7900 0013009 139.2635 220.9576 15.21839176 51534
VZLUSAT-1               
1 42790U 17036AB  18148.43349513  .00001501  00000-0  68298-4 0  9997
2 42790  97.4029 208.7210 0012669 139.8501 220.3674 15.22188431 51517
ROBUSTA-1B              
1 42792U 17036AD  18148.57992846  .00001144  00000-0  53100-4 0  9996
2 42792  97.4024 208.8195 0012562 140.1228 220.0933 15.21978742 51549
CICERO 6                
1 42793U 17036AE  18148.17773869  .00000740  00000-0  35569-4 0  9995
2 42793  97.4017 208.4264 0011630 141.8964 218.3097 15.21838337 51552
D-SAT                   
1 42794U 17036AF  18148.57984213  .00000174  00000-0  20779-4 0  9995
2 42794  97.5929 203.9750 0126708 348.2228  11.6033 14.90860409 50806
TOKI                    
1 42820U 98067MU  18148.26823071  .00017248  00000-0  16415-3 0  9999
2 42820  51.6345 102.2143 0004279  80.9666 279.1814 15.66933642 50756
MAZAALAI (NUMSAT-1)     
1 42822U 98067MW  18148.23456984  .00016665  00000-0  16048-3 0  9997
2 42822  51.6348 102.7447 0004244  82.8167 277.3311 15.66670178 50723
BRAC ONNESHA            
1 42823U 98067MX  18148.23170857  .00016942  00000-0  16245-3 0  9997
2 42823  51.6355 102.7416 0006211 103.3090 256.8599 15.66753066 50726
NIGERIAEDUSAT-1         
1 42824U 98067MY  18148.89132251  .00016871  00000-0  16285-3 0  9991
2 42824  51.6363  99.6615 0006126 105.8642 254.3029 15.66590827 50798
CORVUS BC2              
1 42846U 17042X   18148.62081653  .00000237  00000-0  28809-4 0  9994
2 42846  97.5991  52.1990 0008101 260.8902  99.1400 14.91811678 47458
